STARLINK-31442          
1 59859U 24098B   25245.13337709  .00002683  00000+0  10698-3 0  9995
2 59859  43.0002 266.7595 0001263 264.6289  95.4419 15.27581704 72962
STARLINK-31651          
1 59860U 24098C   25245.09788911 -.00000440  00000+0 -64605-5 0  9997
2 59860  43.0043 263.0504 0001177 273.5968  86.4750 15.27570816 73002
STARLINK-31584          
1 59862U 24098E   25244.43373976 -.00000475  00000+0 -77266-5 0  9992
2 59862  43.0004 266.6672 0000986 279.6068  80.4672 15.27576000 72907
STARLINK-31950          
1 59863U 24098F   25245.10557482  .00006440  00000+0  24327-3 0  9998
2 59863  43.0052 263.1069 0001153 273.4626  86.6094 15.27589721 73004
STARLINK-31931          
1 59864U 24098G   25245.12358381  .00000115  00000+0  13686-4 0  9998
2 59864  43.0010 263.2380 0001226 274.2927  85.7784 15.27576163 73002
STARLINK-31938          
1 59865U 24098H   25245.27349453  .00000052  00000+0  11415-4 0  9993
2 59865  42.9992 261.7805 0001125  62.9050 297.1916 15.27572380 73038
STARLINK-31941          
1 59866U 24098J   25245.28868893  .00002029  00000+0  83220-4 0  9998
2 59866  42.9991 244.2344 0000780 278.6920  81.3843 15.27583041 73230
STARLINK-31952          
1 59867U 24098K   25245.10945242 -.00000322  00000+0 -21609-5 0  9994
2 59867  43.0061 263.1349 0001116 280.2283  79.8443 15.27575576 73008
STARLINK-31921          
1 59868U 24098L   25244.99896625 -.00001229  00000+0 -35132-4 0  9993
2 59868  43.0028 223.2662 0001392 279.1322  80.9372 15.27572444 73447
STARLINK-31760          
1 59869U 24098M   25245.11973151 -.00000016  00000+0  89326-5 0  9996
2 59869  43.0023 263.2159 0000971 264.6751  95.3990 15.27575311 73009
STARLINK-31945          
1 59870U 24098N   25245.05339489  .00001600  00000+0  67669-4 0  9995
2 59870  43.0005 259.2457 0001110 273.6084  86.4641 15.27575552 73047
STARLINK-31937          
1 59871U 24098P   25244.76930574 -.00026265  00000+0 -94536-3 0  9993
2 59871  43.0028 257.9622 0001903 275.7052  84.3582 15.27679896 73036
STARLINK-31940          
1 59873U 24098R   25245.04617316  .00001645  00000+0  69288-4 0  9993
2 59873  42.9981 255.7337 0000932 284.0567  76.0181 15.27577188 73087
STARLINK-31933          
1 59874U 24098S   25245.09403432 -.00000809  00000+0 -19880-4 0  9997
2 59874  43.0028 263.0210 0001060 279.3305  80.7427 15.27567753 73008
STARLINK-31936          
1 59875U 24098T   25245.22511083  .00003420  00000+0  13372-3 0  9994
2 59875  43.0013 230.0054 0001333 269.7230  90.3469 15.27585088 73381
STARLINK-31935          
1 59876U 24098U   25245.05049136 -.00001300  00000+0 -37742-4 0  9996
2 59876  43.0027 263.5518 0000870 257.1399 102.9355 15.27583986 72990
