[{"OBJECT_NAME":"STARLINK-31442","OBJECT_ID":"2024-098B","EPOCH":"2025-09-02T03:12:03.780576","MEAN_MOTION":15.27581704,"ECCENTRICITY":0.00012638,"INCLINATION":43.0002,"RA_OF_ASC_NODE":266.7595,"ARG_OF_PERICENTER":264.6289,"MEAN_ANOMALY":95.4419,"EPHEMERIS_TYPE":0,"CLASSIFICATION_TYPE":"U","NORAD_CAT_ID":59859,"ELEMENT_SET_NO":999,"REV_AT_EPOCH":7296,"BSTAR":0.00010698206,"MEAN_MOTION_DOT":2.683e-5,"MEAN_MOTION_DDOT":0},{"OBJECT_NAME":"STARLINK-31651","OBJECT_ID":"2024-098C","EPOCH":"2025-09-02T02:20:57.619104","MEAN_MOTION":15.27570816,"ECCENTRICITY":0.00011771,"INCLINATION":43.0043,"RA_OF_ASC_NODE":263.0504,"ARG_OF_PERICENTER":273.5968,"MEAN_ANOMALY":86.475,"EPHEMERIS_TYPE":0,"CLASSIFICATION_TYPE":"U","NORAD_CAT_ID":59860,"ELEMENT_SET_NO":999,"REV_AT_EPOCH":7300,"BSTAR":-6.460473e-6,"MEAN_MOTION_DOT":-4.4e-6,"MEAN_MOTION_DDOT":0},{"OBJECT_NAME":"STARLINK-31584","OBJECT_ID":"2024-098E","EPOCH":"2025-09-01T10:24:35.115264","MEAN_MOTION":15.27576,"ECCENTRICITY":9.869e-5,"INCLINATION":43.0004,"RA_OF_ASC_NODE":266.6672,"ARG_OF_PERICENTER":279.6068,"MEAN_ANOMALY":80.4672,"EPHEMERIS_TYPE":0,"CLASSIFICATION_TYPE":"U","NORAD_CAT_ID":59862,"ELEMENT_SET_NO":999,"REV_AT_EPOCH":7290,"BSTAR":-7.726558e-6,"MEAN_MOTION_DOT":-4.75e-6,"MEAN_MOTION_DDOT":0},{"OBJECT_NAME":"STARLINK-31950","OBJECT_ID":"2024-098F","EPOCH":"2025-09-02T02:32:01.664448","MEAN_MOTION":15.27589721,"ECCENTRICITY":0.00011533,"INCLINATION":43.0052,"RA_OF_ASC_NODE":263.1069,"ARG_OF_PERICENTER":273.4626,"MEAN_ANOMALY":86.6094,"EPHEMERIS_TYPE":0,"CLASSIFICATION_TYPE":"U","NORAD_CAT_ID":59863,"ELEMENT_SET_NO":999,"REV_AT_EPOCH":7300,"BSTAR":0.00024327247,"MEAN_MOTION_DOT":6.44e-5,"MEAN_MOTION_DDOT":0},{"OBJECT_NAME":"STARLINK-31931","OBJECT_ID":"2024-098G","EPOCH":"2025-09-02T02:57:57.641184","MEAN_MOTION":15.27576163,"ECCENTRICITY":0.00012266,"INCLINATION":43.001,"RA_OF_ASC_NODE":263.238,"ARG_OF_PERICENTER":274.2927,"MEAN_ANOMALY":85.7784,"EPHEMERIS_TYPE":0,"CLASSIFICATION_TYPE":"U","NORAD_CAT_ID":59864,"ELEMENT_SET_NO":999,"REV_AT_EPOCH":7300,"BSTAR":1.3686236e-5,"MEAN_MOTION_DOT":1.15e-6,"MEAN_MOTION_DDOT":0},{"OBJECT_NAME":"STARLINK-31938","OBJECT_ID":"2024-098H","EPOCH":"2025-09-02T06:33:49.927392","MEAN_MOTION":15.2757238,"ECCENTRICITY":0.00011252,"INCLINATION":42.9992,"RA_OF_ASC_NODE":261.7805,"ARG_OF_PERICENTER":62.905,"MEAN_ANOMALY":297.1916,"EPHEMERIS_TYPE":0,"CLASSIFICATION_TYPE":"U","NORAD_CAT_ID":59865,"ELEMENT_SET_NO":999,"REV_AT_EPOCH":7303,"BSTAR":1.1414827e-5,"MEAN_MOTION_DOT":5.2e-7,"MEAN_MOTION_DDOT":0},{"OBJECT_NAME":"STARLINK-31941","OBJECT_ID":"2024-098J","EPOCH":"2025-09-02T06:55:42.723552","MEAN_MOTION":15.27583041,"ECCENTRICITY":7.808e-5,"INCLINATION":42.9991,"RA_OF_ASC_NODE":244.2344,"ARG_OF_PERICENTER":278.692,"MEAN_ANOMALY":81.3843,"EPHEMERIS_TYPE":0,"CLASSIFICATION_TYPE":"U","NORAD_CAT_ID":59866,"ELEMENT_SET_NO":999,"REV_AT_EPOCH":7323,"BSTAR":8.3220088e-5,"MEAN_MOTION_DOT":2.029e-5,"MEAN_MOTION_DDOT":0},{"OBJECT_NAME":"STARLINK-31952","OBJECT_ID":"2024-098K","EPOCH":"2025-09-02T02:37:36.689088","MEAN_MOTION":15.27575576,"ECCENTRICITY":0.00011168,"INCLINATION":43.0061,"RA_OF_ASC_NODE":263.1349,"ARG_OF_PERICENTER":280.2283,"MEAN_ANOMALY":79.8443,"EPHEMERIS_TYPE":0,"CLASSIFICATION_TYPE":"U","NORAD_CAT_ID":59867,"ELEMENT_SET_NO":999,"REV_AT_EPOCH":7300,"BSTAR":-2.160886e-6,"MEAN_MOTION_DOT":-3.22e-6,"MEAN_MOTION_DDOT":0},{"OBJECT_NAME":"STARLINK-31921","OBJECT_ID":"2024-098L","EPOCH":"2025-09-01T23:58:30.684000","MEAN_MOTION":15.27572444,"ECCENTRICITY":0.00013926,"INCLINATION":43.0028,"RA_OF_ASC_NODE":223.2662,"ARG_OF_PERICENTER":279.1322,"MEAN_ANOMALY":80.9372,"EPHEMERIS_TYPE":0,"CLASSIFICATION_TYPE":"U","NORAD_CAT_ID":59868,"ELEMENT_SET_NO":999,"REV_AT_EPOCH":7344,"BSTAR":-3.5132467e-5,"MEAN_MOTION_DOT":-1.229e-5,"MEAN_MOTION_DDOT":0},{"OBJECT_NAME":"STARLINK-31760","OBJECT_ID":"2024-098M","EPOCH":"2025-09-02T02:52:24.802464","MEAN_MOTION":15.27575311,"ECCENTRICITY":9.713e-5,"INCLINATION":43.0023,"RA_OF_ASC_NODE":263.2159,"ARG_OF_PERICENTER":264.6751,"MEAN_ANOMALY":95.399,"EPHEMERIS_TYPE":0,"CLASSIFICATION_TYPE":"U","NORAD_CAT_ID":59869,"ELEMENT_SET_NO":999,"REV_AT_EPOCH":7300,"BSTAR":8.932598e-6,"MEAN_MOTION_DOT":-1.6e-7,"MEAN_MOTION_DDOT":0},{"OBJECT_NAME":"STARLINK-31945","OBJECT_ID":"2024-098N","EPOCH":"2025-09-02T01:16:53.318496","MEAN_MOTION":15.27575552,"ECCENTRICITY":0.00011103,"INCLINATION":43.0005,"RA_OF_ASC_NODE":259.2457,"ARG_OF_PERICENTER":273.6084,"MEAN_ANOMALY":86.4641,"EPHEMERIS_TYPE":0,"CLASSIFICATION_TYPE":"U","NORAD_CAT_ID":59870,"ELEMENT_SET_NO":999,"REV_AT_EPOCH":7304,"BSTAR":6.7668991e-5,"MEAN_MOTION_DOT":1.6e-5,"MEAN_MOTION_DDOT":0},{"OBJECT_NAME":"STARLINK-31937","OBJECT_ID":"2024-098P","EPOCH":"2025-09-01T18:27:48.015936","MEAN_MOTION":15.27679896,"ECCENTRICITY":0.00019036,"INCLINATION":43.0028,"RA_OF_ASC_NODE":257.9622,"ARG_OF_PERICENTER":275.7052,"MEAN_ANOMALY":84.3582,"EPHEMERIS_TYPE":0,"CLASSIFICATION_TYPE":"U","NORAD_CAT_ID":59871,"ELEMENT_SET_NO":999,"REV_AT_EPOCH":7303,"BSTAR":-0.00094536114,"MEAN_MOTION_DOT":-0.00026265,"MEAN_MOTION_DDOT":0},{"OBJECT_NAME":"STARLINK-31940","OBJECT_ID":"2024-098R","EPOCH":"2025-09-02T01:06:29.361024","MEAN_MOTION":15.27577188,"ECCENTRICITY":9.329e-5,"INCLINATION":42.9981,"RA_OF_ASC_NODE":255.7337,"ARG_OF_PERICENTER":284.0567,"MEAN_ANOMALY":76.0181,"EPHEMERIS_TYPE":0,"CLASSIFICATION_TYPE":"U","NORAD_CAT_ID":59873,"ELEMENT_SET_NO":999,"REV_AT_EPOCH":7308,"BSTAR":6.9287662e-5,"MEAN_MOTION_DOT":1.645e-5,"MEAN_MOTION_DDOT":0},{"OBJECT_NAME":"STARLINK-31933","OBJECT_ID":"2024-098S","EPOCH":"2025-09-02T02:15:24.565248","MEAN_MOTION":15.27567753,"ECCENTRICITY":0.000106,"INCLINATION":43.0028,"RA_OF_ASC_NODE":263.021,"ARG_OF_PERICENTER":279.3305,"MEAN_ANOMALY":80.7427,"EPHEMERIS_TYPE":0,"CLASSIFICATION_TYPE":"U","NORAD_CAT_ID":59874,"ELEMENT_SET_NO":999,"REV_AT_EPOCH":7300,"BSTAR":-1.9879599e-5,"MEAN_MOTION_DOT":-8.09e-6,"MEAN_MOTION_DDOT":0},{"OBJECT_NAME":"STARLINK-31936","OBJECT_ID":"2024-098T","EPOCH":"2025-09-02T05:24:09.575712","MEAN_MOTION":15.27585088,"ECCENTRICITY":0.00013335,"INCLINATION":43.0013,"RA_OF_ASC_NODE":230.0054,"ARG_OF_PERICENTER":269.723,"MEAN_ANOMALY":90.3469,"EPHEMERIS_TYPE":0,"CLASSIFICATION_TYPE":"U","NORAD_CAT_ID":59875,"ELEMENT_SET_NO":999,"REV_AT_EPOCH":7338,"BSTAR":0.0001337175,"MEAN_MOTION_DOT":3.42e-5,"MEAN_MOTION_DDOT":0},{"OBJECT_NAME":"STARLINK-31935","OBJECT_ID":"2024-098U","EPOCH":"2025-09-02T01:12:42.453504","MEAN_MOTION":15.27583986,"ECCENTRICITY":8.7e-5,"INCLINATION":43.0027,"RA_OF_ASC_NODE":263.5518,"ARG_OF_PERICENTER":257.1399,"MEAN_ANOMALY":102.9355,"EPHEMERIS_TYPE":0,"CLASSIFICATION_TYPE":"U","NORAD_CAT_ID":59876,"ELEMENT_SET_NO":999,"REV_AT_EPOCH":7299,"BSTAR":-3.7741732e-5,"MEAN_MOTION_DOT":-1.3e-5,"MEAN_MOTION_DDOT":0}]
